[Satellite]
VERSION=1.1
NAME=GOES 6 [-]
NICKNAME=GOES 6 [-]
TLE1=1 14050U 83041A   17186.19000649 -.00000276  00000-0  00000-0 0  9994
TLE2=2 14050  14.5798 349.7489 0002400 204.4771  82.6997  1.00269237183239
